NORAD_CAT_ID,OBJECT_NAME,OBJECT_TYPE,EPOCH,MEAN_MOTION,ECCENTRICITY,INCLINATION,RA_OF_ASC_NODE,ARG_OF_PERICENTER,MEAN_ANOMALY,BSTAR,MEAN_MOTION_DOT,MEAN_MOTION_DDOT,TLE_LINE0,TLE_LINE1,TLE_LINE2,SEMIMAJOR_AXIS,PERIOD,APOGEE,PERIGEE,DECAYED
51728.0,STARLINK-3448,PAYLOAD,2022-05-26 22:00:00,15.08832833,0.0001661,53.2162,46.6141,49.1183,332.6472,-0.0010458,-0.0001689,0.0,0 STARLINK-3448,1 51728U 22016Q   22146.91667824 -.00016890  00000-0 -10458-2 0  9998,2 51728  53.2162  46.6141 0001661  49.1183 332.6472 15.08832833 15954,6917.901999999999,95.438,540.9159999999998,538.618,0.0
51728.0,STARLINK-3448,PAYLOAD,2022-05-27 14:00:01,15.08788447,0.0001679,53.2164,43.6201,54.1889,350.7443,0.0030563,0.0004862,0.0,0 STARLINK-3448,1 51728U 22016Q   22147.58334491  .00048620  00000-0  30563-2 0  9996,2 51728  53.2164  43.6201 0001679  54.1889 350.7443 15.08788447  1302,6918.038000000001,95.441,541.065,538.741,0.0
51728.0,STARLINK-3448,PAYLOAD,2022-05-27 21:45:04,15.08816627,0.0001681,53.218,42.1725,46.4863,313.6269,5.9619e-05,6.6e-06,0.0,0 STARLINK-3448,1 51728U 22016Q   22147.90630611  .00000660  00000-0  59619-4 0  9992,2 51728  53.2180  42.1725 0001681  46.4863 313.6269 15.08816627 14966,6917.9519999999975,95.439,540.98,538.654,0.0
51728.0,STARLINK-3448,PAYLOAD,2022-05-27 22:00:01,15.08834089,0.000186,53.2166,42.1253,52.1652,4.3865,-0.00090284,-0.00014626,0.0,0 STARLINK-3448,1 51728U 22016Q   22147.91668981 -.00014626  00000-0 -90284-3 0  9995,2 51728  53.2166  42.1253 0001860  52.1652   4.3865 15.08834089 16101,6917.898,95.438,541.05,538.477,0.0
51728.0,STARLINK-3448,PAYLOAD,2022-05-28 14:00:01,15.08826794,0.0001745,53.2169,39.1312,54.9867,24.6898,0.0038452,0.0006142,0.0,0 STARLINK-3448,1 51728U 22016Q   22148.58334491  .00061420  00000-0  38452-2 0  9995,2 51728  53.2169  39.1312 0001745  54.9867  24.6898 15.08826794 16202,6917.920999999999,95.438,540.993,538.5790000000002,0.0
51728.0,STARLINK-3448,PAYLOAD,2022-05-28 20:00:27,15.08842016,0.000177,53.2178,38.0087,49.11600000000001,310.9985,8.510200000000001e-05,1.067e-05,0.0,0 STARLINK-3448,1 51728U 22016Q   22148.83365501  .00001067  00000-0  85102-4 0  9996,2 51728  53.2178  38.0087 0001770  49.1160 310.9985 15.08842016 15100,6917.874,95.437,540.964,538.515,0.0
51728.0,STARLINK-3448,PAYLOAD,2022-05-29 06:00:02,15.08828714,0.0001784,53.2169,36.1402,45.0186,57.9192,0.00037654,5.708e-05,0.0,0 STARLINK-3448,1 51728U 22016Q   22149.25002315  .00005708  00000-0  37654-3 0  9998,2 51728  53.2169  36.1402 0001784  45.0186  57.9192 15.08828714 16308,6917.915,95.438,541.014,538.5459999999998,0.0
51728.0,STARLINK-3448,PAYLOAD,2022-05-29 14:00:01,15.08820194,0.0001678,53.2173,34.6424,52.4626,61.9885,0.00061049,9.436e-05,0.0,0 STARLINK-3448,1 51728U 22016Q   22149.58334491  .00009436  00000-0  61049-3 0  9994,2 51728  53.2173  34.6424 0001678  52.4626  61.9885 15.08820194  1305,6917.941,95.439,540.967,538.645,0.0
51728.0,STARLINK-3448,PAYLOAD,2022-05-29 21:26:39,15.08825451,0.0001771,53.2177,33.2495,51.6621,308.453,2.9403000000000013e-05,1.8e-06,0.0,0 STARLINK-3448,1 51728U 22016Q   22149.89351171  .00000180  00000-0  29403-4 0  9998,2 51728  53.2177  33.2495 0001771  51.6621 308.4530 15.08825451 15269,6917.925,95.438,541.015,538.565,0.0
51728.0,STARLINK-3448,PAYLOAD,2022-05-29 22:00:00,15.08821343,0.0001879,53.2173,33.1476,51.4638,74.5653,-0.0011482,-0.00018506,0.0,0 STARLINK-3448,1 51728U 22016Q   22149.91667824 -.00018506  00000-0 -11482-2 0  9995,2 51728  53.2173  33.1476 0001879  51.4638  74.5653 15.08821343 16408,6917.937,95.439,541.102,538.503,0.0
51728.0,STARLINK-3448,PAYLOAD,2022-05-30 14:00:01,15.08809764,0.0001746,53.2172,30.1535,56.2919,92.8801,0.0029459,0.00046869,0.0,0 STARLINK-3448,1 51728U 22016Q   22150.58334491  .00046869  00000-0  29459-2 0  9995,2 51728  53.2172  30.1535 0001746  56.2919  92.8801 15.08809764 16500,6917.973000000001,95.439,541.0459999999998,538.63,0.0
51728.0,STARLINK-3448,PAYLOAD,2022-05-30 22:00:00,15.08841195,0.0001895,53.2172,28.6588,52.7925,107.9575,-0.00065907,-0.00010762,0.0,0 STARLINK-3448,1 51728U 22016Q   22150.91667824 -.00010762  00000-0 -65907-3 0  9995,2 51728  53.2172  28.6588 0001895  52.7925 107.9575 15.08841195  1305,6917.877,95.437,541.053,538.431,0.0
51728.0,STARLINK-3448,PAYLOAD,2022-05-31 06:00:02,15.08853128,0.0001899,53.2168,27.1621,51.6881,120.7107,-0.00081538,-0.00013246,0.0,0 STARLINK-3448,1 51728U 22016Q   22151.25002315 -.00013246  00000-0 -81538-3 0  9999,2 51728  53.2168  27.1621 0001899  51.6881 120.7107 15.08853128 16607,6917.84,95.437,541.019,538.3919999999998,0.0
51728.0,STARLINK-3448,PAYLOAD,2022-05-31 22:00:00,15.08860502,0.0001892,53.2166,24.1698,54.3768,141.1755,-0.00039934,-6.642e-05,0.0,0 STARLINK-3448,1 51728U 22016Q   22151.91667824 -.00006642  00000-0 -39934-3 0  9999,2 51728  53.2166  24.1698 0001892  54.3768 141.1755 15.08860502 16704,6917.818,95.436,540.992,538.374,0.0
51728.0,STARLINK-3448,PAYLOAD,2022-06-01 20:00:01,15.08872369,0.0001734,53.2162,20.0543,55.0267,82.4541,-0.0041328999999999,-0.00065524,0.0,0 STARLINK-3448,1 51728U 22016Q   22152.83334491 -.00065524  00000-0 -41329-2 0  9996,2 51728  53.2162  20.0543 0001734  55.0267  82.4541 15.08872369  1305,6917.781,95.436,540.846,538.447,0.0
51728.0,STARLINK-3448,PAYLOAD,2022-06-02 17:39:01,15.08840387,0.0001911,53.2175,16.0044,56.8791,303.2385,-4.3724e-05,-9.84e-06,0.0,0 STARLINK-3448,1 51728U 22016Q   22153.73543646 -.00000984  00000-0 -43724-4 0  9992,2 51728  53.2175  16.0044 0001911  56.8791 303.2385 15.08840387 16972,6917.879,95.438,541.066,538.422,0.0
51728.0,STARLINK-3448,PAYLOAD,2022-06-03 07:57:29,15.08848198,0.0001848,53.2177,13.3271,56.2271,303.8897,-5.4518e-05,-1.156e-05,0.0,0 STARLINK-3448,1 51728U 22016Q   22154.33159006 -.00001156  00000-0 -54518-4 0  9997,2 51728  53.2177  13.3271 0001848  56.2271 303.8897 15.08848198 17065,6917.855,95.437,540.999,538.442,0.0
51728.0,STARLINK-3448,PAYLOAD,2022-06-03 20:40:33,15.08849577,0.0001785,53.2177,10.9477,55.5187,304.5973,2.1253e-05,5e-07,0.0,0 STARLINK-3448,1 51728U 22016Q   22154.86150305  .00000050  00000-0  21253-4 0  9998,2 51728  53.2177  10.9477 0001785  55.5187 304.5973 15.08849577 16013,6917.851,95.437,540.951,538.481,0.0
51728.0,STARLINK-3448,PAYLOAD,2022-06-04 07:48:16,15.08833963,0.0002174,53.2192,8.865,58.497,301.6234,5.1957e-06,-2.06e-06,0.0,0 STARLINK-3448,1 51728U 22016Q   22155.32519292 -.00000206  00000-0  51957-5 0  9993,2 51728  53.2192   8.8650 0002174  58.4970 301.6234 15.08833963 17217,6917.899,95.438,541.268,538.26,0.0
51728.0,STARLINK-3448,PAYLOAD,2022-06-05 22:00:00,15.08825091,0.000183,53.217,1.7234,50.6416,318.8742,0.00095052,0.00014866,0.0,0 STARLINK-3448,1 51728U 22016Q   22156.91667824  .00014866  00000-0  95052-3 0  9992,2 51728  53.2170   1.7234 0001830  50.6416 318.8742 15.08825091 17453,6917.926,95.438,541.057,538.525,0.0
51728.0,STARLINK-3448,PAYLOAD,2022-06-06 14:00:01,15.0885187,0.000164,53.2173,358.7289,57.0128,335.6829,0.00011696,1.574e-05,0.0,0 STARLINK-3448,1 51728U 22016Q   22157.58334491  .00001574  00000-0  11696-3 0  9991,2 51728  53.2173 358.7289 0001640  57.0128 335.6829 15.08851870  1305,6917.844,95.437,540.844,538.575,0.0
51728.0,STARLINK-3448,PAYLOAD,2022-06-06 22:00:00,15.08829917,0.0001761,53.2172,357.2343,49.9763,354.3351,-0.00021004,-3.628e-05,0.0,0 STARLINK-3448,1 51728U 22016Q   22157.91667824 -.00003628  00000-0 -21004-3 0  9995,2 51728  53.2172 357.2343 0001761  49.9763 354.3351 15.08829917  1303,6917.911,95.438,540.994,538.558,0.0
51728.0,STARLINK-3448,PAYLOAD,2022-06-07 06:00:00,15.08843207,0.0001614,53.2171,355.7366,51.5488,4.3456,-0.0013034,-0.00020974,0.0,0 STARLINK-3448,1 51728U 22016Q   22158.25001157 -.00020974  00000-0 -13034-2 0  9990,2 51728  53.2171 355.7366 0001614  51.5488   4.3456 15.08843207 17662,6917.871,95.437,540.852,538.619,0.0
51728.0,STARLINK-3448,PAYLOAD,2022-06-07 14:00:01,15.088434,0.0001558,53.2173,354.24,56.5691,10.9096,0.00050735,7.796e-05,0.0,0 STARLINK-3448,1 51728U 22016Q   22158.58334491  .00007796  00000-0  50735-3 0  9991,2 51728  53.2173 354.2400 0001558  56.5691  10.9096 15.08843400  1307,6917.87,95.437,540.813,538.6569999999998,0.0
51728.0,STARLINK-3448,PAYLOAD,2022-06-07 22:00:00,15.08838509,0.0001689,53.2171,352.7454,49.0229,30.0635,0.00089569,0.00013995,0.0,0 STARLINK-3448,1 51728U 22016Q   22158.91667824  .00013995  00000-0  89569-3 0  9992,2 51728  53.2171 352.7454 0001689  49.0229  30.0635 15.08838509 17769,6917.885,95.438,540.918,538.582,0.0
51728.0,STARLINK-3448,PAYLOAD,2022-06-08 14:00:01,15.08840168,0.000146,53.2169,349.7511,55.4945,46.7774,1.9992e-06,-2.56e-06,0.0,0 STARLINK-3448,1 51728U 22016Q   22159.58334491 -.00000256  00000-0  19992-5 0  9999,2 51728  53.2169 349.7511 0001460  55.4945  46.7774 15.08840168 17862,6917.88,95.438,540.755,538.735,0.0
51728.0,STARLINK-3448,PAYLOAD,2022-06-08 22:00:01,15.08830433,0.0001645,53.2166,348.2565,49.2101,64.7208,-0.00019928,-3.457e-05,0.0,0 STARLINK-3448,1 51728U 22016Q   22159.91668981 -.00003457  00000-0 -19928-3 0  9994,2 51728  53.2166 348.2565 0001645  49.2101  64.7208 15.08830433  1300,6917.91,95.438,540.913,538.637,0.0
51728.0,STARLINK-3448,PAYLOAD,2022-06-09 14:00:01,15.08830986,0.0001582,53.2163,345.2622,59.2682,77.7465,-0.00049692,-8.186e-05,0.0,0 STARLINK-3448,1 51728U 22016Q   22160.58334491 -.00008186  00000-0 -49692-3 0  9990,2 51728  53.2163 345.2622 0001582  59.2682  77.7465 15.08830986  1305,6917.908,95.438,540.867,538.679,0.0
51728.0,STARLINK-3448,PAYLOAD,2022-06-09 22:00:00,15.088034099999998,0.0001710999999999,53.216,343.7676,51.6915,96.9081,0.0026588,0.00042238,0.0,0 STARLINK-3448,1 51728U 22016Q   22160.91667824  .00042238  00000-0  26588-2 0  9998,2 51728  53.2160 343.7676 0001711  51.6915  96.9081 15.08803410  1302,6917.9919999999975,95.44,541.0409999999998,538.674,0.0
